GLOBALSTAR M067         
1 32263U 07048A   25077.07645868 -.00000062  00000+0  26198-3 0  9997
2 32263  51.9732 302.5324 0001497 118.5435  38.3389 12.40668413798421
GLOBALSTAR M070         
1 32264U 07048B   25077.33356701 -.00000086  00000+0  96891-4 0  9996
2 32264  51.9762  45.2774 0000247  49.2456  97.3310 12.62313916803177
GLOBALSTAR M066         
1 32265U 07048C   25077.01886113 -.00000064  00000+0  25356-3 0  9990
2 32265  51.9639 289.4753 0002084  54.8746 110.4597 12.35251607804976
GLOBALSTAR M068         
1 32266U 07048D   25077.44120966 -.00000040  00000+0  35643-3 0  9999
2 32266  51.9872 218.8796 0000151 329.2160  70.1586 12.62817486806381
GLOBALSTAR M079         
1 37188U 10054A   25077.52856260 -.00000105  00000+0 -89574-5 0  9997
2 37188  52.0044  55.7633 0000660  84.3622  55.4840 12.62271708665683
GLOBALSTAR M074         
1 37189U 10054B   25076.97826738 -.00000113  00000+0 -49849-4 0  9992
2 37189  52.0022  56.7765 0000323 111.5322 285.2724 12.62267208665542
GLOBALSTAR M076         
1 37190U 10054C   25076.92193598 -.00000096  00000+0  40958-4 0  9991
2 37190  52.0033  57.1056 0000630 117.2595 266.7289 12.62278685665259
GLOBALSTAR M077         
1 37191U 10054D   25076.92078626 -.00000086  00000+0  97159-4 0  9990
2 37191  52.0100  13.9450 0000535  76.9143 359.1107 12.62271583665624
